OBJECT_NAME,OBJECT_ID,EPOCH,MEAN_MOTION,ECCENTRICITY,INCLINATION,RA_OF_ASC_NODE,ARG_OF_PERICENTER,MEAN_ANOMALY,EPHEMERIS_TYPE,CLASSIFICATION_TYPE,NORAD_CAT_ID,ELEMENT_SET_NO,REV_AT_EPOCH,BSTAR,MEAN_MOTION_DOT,MEAN_MOTION_DDOT
STARLINK-34971,2025-179X,2026-07-18T06:00:02.000160,15.15411911,.00053727,97.2842,239.4848,82.6847,20.7513,0,U,65256,999,574,.17932987E+0,.3828292E-1,0
STARLINK-34966,2025-179Y,2026-07-18T06:00:02.000160,15.16774874,.00047099,97.2776,239.5004,113.0814,34.4343,0,U,65257,999,579,.17782113E+0,.3961307E-1,0
STARLINK-34980,2025-179Z,2026-07-18T06:00:02.000160,15.14179601,.00022149,97.2783,239.4561,73.6732,317.9518,0,U,65258,999,578,.17719143E+0,.3633023E-1,0
2025-180A,2025-180A,2026-07-18T00:11:56.508288,15.23758684,.00123229,97.5233,327.9190,200.9191,159.1543,0,U,65259,999,5048,.3918326E-3,.9373E-4,0
2025-180B,2025-180B,2026-07-17T18:25:07.023360,15.15631383,.00136555,97.5307,325.7219,211.9830,148.0575,0,U,65260,999,5029,.10078029E-3,.1851E-4,0
2025-180C,2025-180C,2026-07-18T07:05:35.030976,15.15626356,.00133959,97.5281,326.1367,206.8356,153.2185,0,U,65261,999,5037,.13773103E-3,.2555E-4,0
2025-180D,2025-180D,2026-07-18T07:05:20.104512,15.15620129,.00135264,97.5301,326.2128,206.3976,153.6569,0,U,65262,999,5037,.13643659E-3,.253E-4,0
2025-180E,2025-180E,2026-07-18T06:49:14.227680,15.16354445,.00015818,97.4789,325.8934,88.1512,271.9902,0,U,65263,999,5043,.81595441E-4,.1516E-4,0
COSMOS 2591,2025-182A,2026-07-17T01:42:03.127392,15.96398011,.00065617,96.5831,128.6258,73.8449,286.3551,0,U,65267,999,5246,.24501883E-4,.9611E-4,.1882934E-5
COSMOS 2592,2025-182B,2026-07-18T02:08:51.040896,15.96417001,.00069243,96.5805,129.5563,71.1135,289.0894,0,U,65268,999,5262,.13158178E-3,.54234E-3,.296655E-5
COSMOS 2593,2025-182C,2026-07-18T07:02:13.896096,15.96422425,.00062932,96.5849,129.7429,68.8198,291.3752,0,U,65269,999,5265,.1420327E-3,.58578E-3,.315588E-5
COSMOS 2594,2025-182D,2026-07-18T05:54:33.615360,15.96407855,.00050609,96.5866,129.6907,67.6814,292.5001,0,U,65270,999,5266,.13182869E-3,.54244E-3,.2971474E-5
STARLINK-34922,2025-184A,2026-07-18T03:40:11.901792,15.05657110,.00018014,97.2824,249.0897,123.1492,236.9909,0,U,65273,999,5093,.27858463E-3,.3966E-4,0
STARLINK-34904,2025-184B,2026-07-18T02:44:23.258976,15.05658602,.00013755,97.2824,248.9917,129.4374,230.6976,0,U,65274,999,5092,.23597659E-3,.3351E-4,0
STARLINK-34954,2025-184C,2026-07-18T03:12:16.043328,15.05658241,.00019423,97.2841,248.9648,101.6478,258.4968,0,U,65275,999,5092,.12174029E-3,.1701E-4,0
STARLINK-34968,2025-184D,2026-07-18T02:24:25.498368,15.05666077,.00009133,97.2820,249.0103,119.7332,240.3987,0,U,65276,999,5092,.25104145E-3,.3569E-4,0
STARLINK-34935,2025-184E,2026-07-18T03:28:14.406816,15.05670673,.00012829,97.2837,249.1031,129.6025,230.5316,0,U,65277,999,5093,.19412855E-3,.2747E-4,0
STARLINK-35000,2025-184F,2026-07-18T02:56:19.146048,15.05660410,.00021272,97.2827,248.9806,107.2015,252.9445,0,U,65278,999,5092,.13334744E-3,.1869E-4,0
STARLINK-35023,2025-184G,2026-07-18T05:47:46.967712,15.05661442,.00011667,97.2818,249.1255,138.1169,222.0148,0,U,65279,999,5094,.16443363E-3,.2318E-4,0
STARLINK-35001,2025-184H,2026-07-18T02:12:27.514368,15.05660708,.00008675,97.2825,249.0220,127.9061,232.2245,0,U,65280,999,5092,.20810805E-3,.2948E-4,0
STARLINK-35010,2025-184J,2026-07-18T03:36:12.352608,15.05660527,.00017611,97.2828,249.0939,132.0049,228.1329,0,U,65281,999,5093,.13761434E-3,.193E-4,0
STARLINK-35021,2025-184K,2026-07-18T03:20:15.511488,15.05659570,.00013927,97.2830,249.1099,101.5172,258.6212,0,U,65282,999,5088,.15875255E-3,.2236E-4,0
STARLINK-35015,2025-184L,2026-07-18T03:04:18.045696,15.05671487,.00018088,97.2835,248.9731,102.1823,257.9608,0,U,65283,999,5092,.19767328E-3,.2799E-4,0
STARLINK-35006,2025-184M,2026-07-18T02:20:26.081376,15.05660433,.00013337,97.2823,249.0142,136.3778,223.7555,0,U,65284,999,5092,.1721405E-3,.2429E-4,0
STARLINK-34995,2025-184N,2026-07-18T02:40:22.375776,15.05659454,.00014368,97.2826,248.9966,134.0827,226.0519,0,U,65285,999,5092,.18446531E-3,.2607E-4,0
STARLINK-35048,2025-184P,2026-07-18T02:28:24.661344,15.05659870,.00012269,97.2817,249.0068,119.1148,241.0203,0,U,65286,999,5087,.17668137E-3,.2495E-4,0
STARLINK-35007,2025-184Q,2026-07-18T02:52:20.698464,15.05660715,.00016263,97.2830,248.9850,111.8366,248.3035,0,U,65287,999,5086,.21800008E-3,.3091E-4,0
STARLINK-35018,2025-184R,2026-07-18T03:44:10.388256,15.05661732,.00010054,97.2827,249.0889,119.3385,240.7944,0,U,65288,999,5093,.13969739E-3,.1961E-4,0
STARLINK-34845,2025-184S,2026-07-18T03:32:13.046208,15.05658233,.00007932,97.2829,249.0977,124.9916,235.1386,0,U,65289,999,5093,.93802972E-4,.1298E-4,0
STARLINK-34984,2025-184T,2026-07-18T02:16:26.054400,15.05663848,.00012487,97.2825,249.0180,111.5021,248.6340,0,U,65290,999,5092,-.30823268E-3,-.4502E-4,0
