STARLINK-34971          
1 65256U 25179X   26199.25002315  .03828292  00000+0  17933+0 0  9998
2 65256  97.2842 239.4848 0005372  82.6847  20.7513 15.15411911  5741
STARLINK-34966          
1 65257U 25179Y   26199.25002315  .03961307  00000+0  17782+0 0  9996
2 65257  97.2776 239.5004 0004709 113.0814  34.4343 15.16774874  5798
STARLINK-34980          
1 65258U 25179Z   26199.25002315  .03633023  00000+0  17719+0 0  9998
2 65258  97.2783 239.4561 0002214  73.6732 317.9518 15.14179601  5780
2025-180A               
1 65259U 25180A   26199.00829292  .00009373  00000+0  39183-3 0  9990
2 65259  97.5233 327.9190 0012322 200.9191 159.1543 15.23758684 50485
2025-180B               
1 65260U 25180B   26198.76744240  .00001851  00000+0  10078-3 0  9998
2 65260  97.5307 325.7219 0013655 211.9830 148.0575 15.15631383 50297
2025-180C               
1 65261U 25180C   26199.29554434  .00002555  00000+0  13773-3 0  9999
2 65261  97.5281 326.1367 0013395 206.8356 153.2185 15.15626356 50373
2025-180D               
1 65262U 25180D   26199.29537158  .00002530  00000+0  13644-3 0  9994
2 65262  97.5301 326.2128 0013526 206.3976 153.6569 15.15620129 50374
2025-180E               
1 65263U 25180E   26199.28419245  .00001516  00000+0  81595-4 0  9994
2 65263  97.4789 325.8934 0001581  88.1512 271.9902 15.16354445 50432
COSMOS 2591             
1 65267U 25182A   26198.07086953  .00009611  18829-5  24502-4 0  9995
2 65267  96.5831 128.6258 0006561  73.8449 286.3551 15.96398011 52465
COSMOS 2592             
1 65268U 25182B   26199.08947964  .00054234  29665-5  13158-3 0  9991
2 65268  96.5805 129.5563 0006924  71.1135 289.0894 15.96417001 52621
COSMOS 2593             
1 65269U 25182C   26199.29321639  .00058578  31559-5  14203-3 0  9992
2 65269  96.5849 129.7429 0006293  68.8198 291.3752 15.96422425 52652
COSMOS 2594             
1 65270U 25182D   26199.24622240  .00054244  29715-5  13183-3 0  9994
2 65270  96.5866 129.6907 0005060  67.6814 292.5001 15.96407855 52667
STARLINK-34922          
1 65273U 25184A   26199.15291553  .00003966  00000+0  27858-3 0  9997
2 65273  97.2824 249.0897 0001801 123.1492 236.9909 15.05657110 50934
STARLINK-34904          
1 65274U 25184B   26199.11415809  .00003351  00000+0  23598-3 0  9991
2 65274  97.2824 248.9917 0001375 129.4374 230.6976 15.05658602 50921
STARLINK-34954          
1 65275U 25184C   26199.13351902  .00001701  00000+0  12174-3 0  9992
2 65275  97.2841 248.9648 0001942 101.6478 258.4968 15.05658241 50927
STARLINK-34968          
1 65276U 25184D   26199.10029512  .00003569  00000+0  25104-3 0  9990
2 65276  97.2820 249.0103 0000913 119.7332 240.3987 15.05666077 50926
STARLINK-34935          
1 65277U 25184E   26199.14461119  .00002747  00000+0  19413-3 0  9991
2 65277  97.2837 249.1031 0001282 129.6025 230.5316 15.05670673 50930
STARLINK-35000          
1 65278U 25184F   26199.12244382  .00001869  00000+0  13335-3 0  9992
2 65278  97.2827 248.9806 0002127 107.2015 252.9445 15.05660410 50925
STARLINK-35023          
1 65279U 25184G   26199.24151583  .00002318  00000+0  16443-3 0  9999
2 65279  97.2818 249.1255 0001166 138.1169 222.0148 15.05661442 50948
STARLINK-35001          
1 65280U 25184H   26199.09198512  .00002948  00000+0  20811-3 0  9990
2 65280  97.2825 249.0220 0000867 127.9061 232.2245 15.05660708 50926
STARLINK-35010          
1 65281U 25184J   26199.15014297  .00001930  00000+0  13761-3 0  9991
2 65281  97.2828 249.0939 0001761 132.0049 228.1329 15.05660527 50931
STARLINK-35021          
1 65282U 25184K   26199.13906842  .00002236  00000+0  15875-3 0  9994
2 65282  97.2830 249.1099 0001392 101.5172 258.6212 15.05659570 50880
STARLINK-35015          
1 65283U 25184L   26199.12798664  .00002799  00000+0  19767-3 0  9993
2 65283  97.2835 248.9731 0001808 102.1823 257.9608 15.05671487 50925
STARLINK-35006          
1 65284U 25184M   26199.09752409  .00002429  00000+0  17214-3 0  9992
2 65284  97.2823 249.0142 0001333 136.3778 223.7555 15.05660433 50923
STARLINK-34995          
1 65285U 25184N   26199.11137009  .00002607  00000+0  18447-3 0  9996
2 65285  97.2826 248.9966 0001436 134.0827 226.0519 15.05659454 50920
STARLINK-35048          
1 65286U 25184P   26199.10306321  .00002495  00000+0  17668-3 0  9990
2 65286  97.2817 249.0068 0001226 119.1148 241.0203 15.05659870 50876
STARLINK-35007          
1 65287U 25184Q   26199.11968401  .00003091  00000+0  21800-3 0  9991
2 65287  97.2830 248.9850 0001626 111.8366 248.3035 15.05660715 50866
STARLINK-35018          
1 65288U 25184R   26199.15567579  .00001961  00000+0  13970-3 0  9990
2 65288  97.2827 249.0889 0001005 119.3385 240.7944 15.05661732 50935
STARLINK-34845          
1 65289U 25184S   26199.14737322  .00001298  00000+0  93803-4 0  9992
2 65289  97.2829 249.0977 0000793 124.9916 235.1386 15.05658233 50931
STARLINK-34984          
1 65290U 25184T   26199.09474600 -.00004502  00000+0 -30823-3 0  9990
2 65290  97.2825 249.0180 0001248 111.5021 248.6340 15.05663848 50926
